[{"OBJECT_NAME":"ONEWEB-0174","OBJECT_ID":"2021-025AG","EPOCH":"2026-04-22T03:23:16.796832","MEAN_MOTION":13.13469842,"ECCENTRICITY":0.0001572,"INCLINATION":87.8973,"RA_OF_ASC_NODE":331.3838,"ARG_OF_PERICENTER":87.6809,"MEAN_ANOMALY":272.45,"EPHEMERIS_TYPE":0,"CLASSIFICATION_TYPE":"U","NORAD_CAT_ID":48072,"ELEMENT_SET_NO":999,"REV_AT_EPOCH":24647,"BSTAR":0.0006919,"MEAN_MOTION_DOT":2.65e-06,"MEAN_MOTION_DDOT":0.0},{"OBJECT_NAME":"ONEWEB-0175","OBJECT_ID":"2021-025AH","EPOCH":"2026-04-22T00:27:45.615744","MEAN_MOTION":13.13468877,"ECCENTRICITY":0.0002024,"INCLINATION":87.8981,"RA_OF_ASC_NODE":331.3873,"ARG_OF_PERICENTER":77.3282,"MEAN_ANOMALY":282.8073,"EPHEMERIS_TYPE":0,"CLASSIFICATION_TYPE":"U","NORAD_CAT_ID":48073,"ELEMENT_SET_NO":999,"REV_AT_EPOCH":24611,"BSTAR":-0.00090342,"MEAN_MOTION_DOT":-3.17e-06,"MEAN_MOTION_DDOT":0.0},{"OBJECT_NAME":"ONEWEB-0177","OBJECT_ID":"2021-025AJ","EPOCH":"2026-04-22T00:44:48.952032","MEAN_MOTION":13.13471301,"ECCENTRICITY":0.0001507,"INCLINATION":87.8976,"RA_OF_ASC_NODE":331.4063,"ARG_OF_PERICENTER":81.7861,"MEAN_ANOMALY":278.3439,"EPHEMERIS_TYPE":0,"CLASSIFICATION_TYPE":"U","NORAD_CAT_ID":48074,"ELEMENT_SET_NO":999,"REV_AT_EPOCH":24630,"BSTAR":-0.00047185,"MEAN_MOTION_DOT":-1.6e-06,"MEAN_MOTION_DDOT":0.0},{"OBJECT_NAME":"ONEWEB-0178","OBJECT_ID":"2021-025AK","EPOCH":"2026-04-22T03:01:33.048480","MEAN_MOTION":13.13469624,"ECCENTRICITY":0.0001797,"INCLINATION":87.8964,"RA_OF_ASC_NODE":331.4079,"ARG_OF_PERICENTER":74.7572,"MEAN_ANOMALY":285.3755,"EPHEMERIS_TYPE":0,"CLASSIFICATION_TYPE":"U","NORAD_CAT_ID":48075,"ELEMENT_SET_NO":999,"REV_AT_EPOCH":24636,"BSTAR":0.00062628,"MEAN_MOTION_DOT":2.41e-06,"MEAN_MOTION_DDOT":0.0},{"OBJECT_NAME":"ONEWEB-0108","OBJECT_ID":"2021-025AL","EPOCH":"2026-04-22T02:02:50.599968","MEAN_MOTION":13.13469444,"ECCENTRICITY":0.0001761,"INCLINATION":87.8979,"RA_OF_ASC_NODE":331.3841,"ARG_OF_PERICENTER":91.655,"MEAN_ANOMALY":268.4781,"EPHEMERIS_TYPE":0,"CLASSIFICATION_TYPE":"U","NORAD_CAT_ID":48076,"ELEMENT_SET_NO":999,"REV_AT_EPOCH":24628,"BSTAR":-0.00044411,"MEAN_MOTION_DOT":-1.49e-06,"MEAN_MOTION_DDOT":0.0},{"OBJECT_NAME":"ONEWEB-0169","OBJECT_ID":"2021-025AM","EPOCH":"2026-04-22T00:59:29.319648","MEAN_MOTION":13.13459922,"ECCENTRICITY":0.0001648,"INCLINATION":87.8975,"RA_OF_ASC_NODE":331.406,"ARG_OF_PERICENTER":84.9189,"MEAN_ANOMALY":275.2128,"EPHEMERIS_TYPE":0,"CLASSIFICATION_TYPE":"U","NORAD_CAT_ID":48077,"ELEMENT_SET_NO":999,"REV_AT_EPOCH":24493,"BSTAR":0.0059718,"MEAN_MOTION_DOT":2.194e-05,"MEAN_MOTION_DDOT":0.0},{"OBJECT_NAME":"ONEWEB-0176","OBJECT_ID":"2021-031A","EPOCH":"2026-04-21T22:16:14.213856","MEAN_MOTION":13.14502479,"ECCENTRICITY":0.0001746,"INCLINATION":87.8928,"RA_OF_ASC_NODE":300.9275,"ARG_OF_PERICENTER":86.7132,"MEAN_ANOMALY":273.4197,"EPHEMERIS_TYPE":0,"CLASSIFICATION_TYPE":"U","NORAD_CAT_ID":48210,"ELEMENT_SET_NO":999,"REV_AT_EPOCH":24092,"BSTAR":-0.00058469,"MEAN_MOTION_DOT":-2.04e-06,"MEAN_MOTION_DDOT":0.0},{"OBJECT_NAME":"ONEWEB-0184","OBJECT_ID":"2021-031B","EPOCH":"2026-04-21T21:37:25.332960","MEAN_MOTION":13.14502582,"ECCENTRICITY":0.0002159,"INCLINATION":87.894,"RA_OF_ASC_NODE":300.9291,"ARG_OF_PERICENTER":69.2226,"MEAN_ANOMALY":290.9135,"EPHEMERIS_TYPE":0,"CLASSIFICATION_TYPE":"U","NORAD_CAT_ID":48211,"ELEMENT_SET_NO":999,"REV_AT_EPOCH":24089,"BSTAR":0.0006422,"MEAN_MOTION_DOT":2.51e-06,"MEAN_MOTION_DDOT":0.0},{"OBJECT_NAME":"ONEWEB-0179","OBJECT_ID":"2021-031C","EPOCH":"2026-04-22T08:00:03.000384","MEAN_MOTION":13.8556411,"ECCENTRICITY":0.0059247,"INCLINATION":87.8938,"RA_OF_ASC_NODE":300.2556,"ARG_OF_PERICENTER":71.0978,"MEAN_ANOMALY":340.9435,"EPHEMERIS_TYPE":0,"CLASSIFICATION_TYPE":"U","NORAD_CAT_ID":48212,"ELEMENT_SET_NO":999,"REV_AT_EPOCH":525,"BSTAR":0.21895,"MEAN_MOTION_DOT":0.0026188,"MEAN_MOTION_DDOT":0.0},{"OBJECT_NAME":"ONEWEB-0180","OBJECT_ID":"2021-031D","EPOCH":"2026-04-21T21:41:57.730560","MEAN_MOTION":13.14501838,"ECCENTRICITY":0.0001509,"INCLINATION":87.8928,"RA_OF_ASC_NODE":300.9285,"ARG_OF_PERICENTER":81.0129,"MEAN_ANOMALY":279.1172,"EPHEMERIS_TYPE":0,"CLASSIFICATION_TYPE":"U","NORAD_CAT_ID":48213,"ELEMENT_SET_NO":999,"REV_AT_EPOCH":24082,"BSTAR":0.00053464,"MEAN_MOTION_DOT":2.11e-06,"MEAN_MOTION_DDOT":0.0},{"OBJECT_NAME":"ONEWEB-0218","OBJECT_ID":"2021-031E","EPOCH":"2026-04-21T22:13:57.343296","MEAN_MOTION":13.1450231,"ECCENTRICITY":0.0001948,"INCLINATION":87.8928,"RA_OF_ASC_NODE":300.9221,"ARG_OF_PERICENTER":62.7309,"MEAN_ANOMALY":297.4019,"EPHEMERIS_TYPE":0,"CLASSIFICATION_TYPE":"U","NORAD_CAT_ID":48214,"ELEMENT_SET_NO":999,"REV_AT_EPOCH":24098,"BSTAR":-0.00043488,"MEAN_MOTION_DOT":-1.48e-06,"MEAN_MOTION_DDOT":0.0},{"OBJECT_NAME":"ONEWEB-0209","OBJECT_ID":"2021-031F","EPOCH":"2026-04-21T21:57:58.703328","MEAN_MOTION":13.1450124,"ECCENTRICITY":0.0001511,"INCLINATION":87.8918,"RA_OF_ASC_NODE":300.9474,"ARG_OF_PERICENTER":87.3568,"MEAN_ANOMALY":272.7735,"EPHEMERIS_TYPE":0,"CLASSIFICATION_TYPE":"U","NORAD_CAT_ID":48215,"ELEMENT_SET_NO":999,"REV_AT_EPOCH":24098,"BSTAR":4.5367e-05,"MEAN_MOTION_DOT":3e-07,"MEAN_MOTION_DDOT":0.0},{"OBJECT_NAME":"ONEWEB-0198","OBJECT_ID":"2021-031G","EPOCH":"2026-04-21T23:24:56.146176","MEAN_MOTION":13.14502969,"ECCENTRICITY":0.000106,"INCLINATION":87.8935,"RA_OF_ASC_NODE":300.9312,"ARG_OF_PERICENTER":123.3735,"MEAN_ANOMALY":236.7496,"EPHEMERIS_TYPE":0,"CLASSIFICATION_TYPE":"U","NORAD_CAT_ID":48216,"ELEMENT_SET_NO":999,"REV_AT_EPOCH":24110,"BSTAR":0.0062465,"MEAN_MOTION_DOT":2.329e-05,"MEAN_MOTION_DDOT":0.0},{"OBJECT_NAME":"ONEWEB-0189","OBJECT_ID":"2021-031H","EPOCH":"2026-04-21T21:53:24.394560","MEAN_MOTION":13.14501705,"ECCENTRICITY":0.0001598,"INCLINATION":87.8935,"RA_OF_ASC_NODE":300.9286,"ARG_OF_PERICENTER":79.3009,"MEAN_ANOMALY":280.8301,"EPHEMERIS_TYPE":0,"CLASSIFICATION_TYPE":"U","NORAD_CAT_ID":48217,"ELEMENT_SET_NO":999,"REV_AT_EPOCH":24083,"BSTAR":0.00024690000000000004,"MEAN_MOTION_DOT":1.04e-06,"MEAN_MOTION_DDOT":0.0},{"OBJECT_NAME":"ONEWEB-0196","OBJECT_ID":"2021-031J","EPOCH":"2026-04-21T23:11:03.028128","MEAN_MOTION":13.14503041,"ECCENTRICITY":0.0001629,"INCLINATION":87.8925,"RA_OF_ASC_NODE":300.9279,"ARG_OF_PERICENTER":86.7851,"MEAN_ANOMALY":273.3465,"EPHEMERIS_TYPE":0,"CLASSIFICATION_TYPE":"U","NORAD_CAT_ID":48218,"ELEMENT_SET_NO":999,"REV_AT_EPOCH":24084,"BSTAR":0.00036674,"MEAN_MOTION_DOT":1.49e-06,"MEAN_MOTION_DDOT":0.0},{"OBJECT_NAME":"ONEWEB-0183","OBJECT_ID":"2021-031K","EPOCH":"2026-04-21T22:34:30.081216","MEAN_MOTION":13.14502616,"ECCENTRICITY":0.000166,"INCLINATION":87.8924,"RA_OF_ASC_NODE":300.932,"ARG_OF_PERICENTER":97.0427,"MEAN_ANOMALY":263.0892,"EPHEMERIS_TYPE":0,"CLASSIFICATION_TYPE":"U","NORAD_CAT_ID":48219,"ELEMENT_SET_NO":999,"REV_AT_EPOCH":24093,"BSTAR":-0.00041192,"MEAN_MOTION_DOT":-1.4e-06,"MEAN_MOTION_DDOT":0.0},{"OBJECT_NAME":"ONEWEB-0185","OBJECT_ID":"2021-031L","EPOCH":"2026-04-21T21:22:35.190048","MEAN_MOTION":13.14503044,"ECCENTRICITY":0.0001321,"INCLINATION":87.8935,"RA_OF_ASC_NODE":300.9303,"ARG_OF_PERICENTER":96.688,"MEAN_ANOMALY":263.44,"EPHEMERIS_TYPE":0,"CLASSIFICATION_TYPE":"U","NORAD_CAT_ID":48220,"ELEMENT_SET_NO":999,"REV_AT_EPOCH":24085,"BSTAR":0.00048740000000000003,"MEAN_MOTION_DOT":1.93e-06,"MEAN_MOTION_DDOT":0.0},{"OBJECT_NAME":"ONEWEB-0187","OBJECT_ID":"2021-031M","EPOCH":"2026-04-21T22:43:26.932800","MEAN_MOTION":13.14497956,"ECCENTRICITY":0.0001475,"INCLINATION":87.8911,"RA_OF_ASC_NODE":300.9446,"ARG_OF_PERICENTER":88.1297,"MEAN_ANOMALY":272.0002,"EPHEMERIS_TYPE":0,"CLASSIFICATION_TYPE":"U","NORAD_CAT_ID":48221,"ELEMENT_SET_NO":999,"REV_AT_EPOCH":24087,"BSTAR":-0.00028579,"MEAN_MOTION_DOT":-9.3e-07,"MEAN_MOTION_DDOT":0.0},{"OBJECT_NAME":"ONEWEB-0192","OBJECT_ID":"2021-031N","EPOCH":"2026-04-21T22:00:15.463296","MEAN_MOTION":13.14501415,"ECCENTRICITY":0.0001733,"INCLINATION":87.8917,"RA_OF_ASC_NODE":300.9393,"ARG_OF_PERICENTER":86.9253,"MEAN_ANOMALY":273.2075,"EPHEMERIS_TYPE":0,"CLASSIFICATION_TYPE":"U","NORAD_CAT_ID":48222,"ELEMENT_SET_NO":999,"REV_AT_EPOCH":24078,"BSTAR":-0.00011916,"MEAN_MOTION_DOT":-3.1e-07,"MEAN_MOTION_DDOT":0.0},{"OBJECT_NAME":"ONEWEB-0219","OBJECT_ID":"2021-031P","EPOCH":"2026-04-21T23:20:10.756608","MEAN_MOTION":13.14503264,"ECCENTRICITY":0.0001495,"INCLINATION":87.8923,"RA_OF_ASC_NODE":300.9179,"ARG_OF_PERICENTER":91.037,"MEAN_ANOMALY":269.0931,"EPHEMERIS_TYPE":0,"CLASSIFICATION_TYPE":"U","NORAD_CAT_ID":48223,"ELEMENT_SET_NO":999,"REV_AT_EPOCH":24099,"BSTAR":0.00071048,"MEAN_MOTION_DOT":2.76e-06,"MEAN_MOTION_DDOT":0.0},{"OBJECT_NAME":"ONEWEB-0202","OBJECT_ID":"2021-031Q","EPOCH":"2026-04-21T22:52:45.985728","MEAN_MOTION":13.14504219,"ECCENTRICITY":0.0001861,"INCLINATION":87.8927,"RA_OF_ASC_NODE":300.9315,"ARG_OF_PERICENTER":69.0389,"MEAN_ANOMALY":291.094,"EPHEMERIS_TYPE":0,"CLASSIFICATION_TYPE":"U","NORAD_CAT_ID":48224,"ELEMENT_SET_NO":999,"REV_AT_EPOCH":24097,"BSTAR":-7.988400000000001e-05,"MEAN_MOTION_DOT":-1.7e-07,"MEAN_MOTION_DDOT":0.0},{"OBJECT_NAME":"ONEWEB-0204","OBJECT_ID":"2021-031R","EPOCH":"2026-04-21T21:52:15.821472","MEAN_MOTION":13.14502463,"ECCENTRICITY":0.0001584,"INCLINATION":87.8922,"RA_OF_ASC_NODE":300.9347,"ARG_OF_PERICENTER":100.3348,"MEAN_ANOMALY":259.7961,"EPHEMERIS_TYPE":0,"CLASSIFICATION_TYPE":"U","NORAD_CAT_ID":48225,"ELEMENT_SET_NO":999,"REV_AT_EPOCH":24086,"BSTAR":-1.399e-05,"MEAN_MOTION_DOT":8e-08,"MEAN_MOTION_DDOT":0.0},{"OBJECT_NAME":"ONEWEB-0205","OBJECT_ID":"2021-031S","EPOCH":"2026-04-21T21:16:52.067136","MEAN_MOTION":13.14502621,"ECCENTRICITY":0.0001514,"INCLINATION":87.8929,"RA_OF_ASC_NODE":300.9304,"ARG_OF_PERICENTER":90.2494,"MEAN_ANOMALY":269.8809,"EPHEMERIS_TYPE":0,"CLASSIFICATION_TYPE":"U","NORAD_CAT_ID":48226,"ELEMENT_SET_NO":999,"REV_AT_EPOCH":24087,"BSTAR":0.00019087000000000002,"MEAN_MOTION_DOT":8.4e-07,"MEAN_MOTION_DDOT":0.0}]